{
  "type": "FeatureCollection",
  "features": [
    {
      "type": "Feature",
      "properties": {
        "norad_id": 36036,
        "name": "SMOS",
        "group": "resource",
        "lat": -70.27037596239353,
        "lon": -41.457002356859526,
        "alt_km": 767.1935711890501,
        "timestamp": "2025-12-03T19:33:06.636306+00:00",
        "meta_object_name": "SMOS",
        "meta_object_id": "2009-059A",
        "meta_epoch": "2025-12-03T11:42:47.291904",
        "meta_mean_motion": 14.39788745,
        "meta_eccentricity": 0.0001026,
        "meta_inclination": 98.4384,
        "meta_ra_of_asc_node": 162.673,
        "meta_arg_of_pericenter": 72.1979,
        "meta_mean_anomaly": 287.9321,
        "meta_ephemeris_type": 0,
        "meta_classification_type": "U",
        "meta_norad_cat_id": 36036,
        "meta_element_set_no": 999,
        "meta_rev_at_epoch": 84529,
        "meta_bstar": 0.0002075,
        "meta_mean_motion_dot": 6.07e-06,
        "meta_mean_motion_ddot": 0,
        "tle_line1": "1 36036U 09059A   25337.48804736  .00000607  00000+0  20750-3 0  9990",
        "tle_line2": "2 36036  98.4384 162.6730 0001026  72.1979 287.9321 14.39788745845291"
      },
      "geometry": {
        "type": "Point",
        "coordinates": [
          -41.457002356859526,
          -70.27037596239353
        ]
      }
    },
    {
      "type": "Feature",
      "properties": {
        "norad_id": 36110,
        "name": "YAOGAN-7",
        "group": "resource",
        "lat": -60.3750576561956,
        "lon": -126.02231269011732,
        "alt_km": 627.4286824830197,
        "timestamp": "2025-12-03T19:33:06.636316+00:00",
        "meta_object_name": "YAOGAN-7",
        "meta_object_id": "2009-069A",
        "meta_epoch": "2025-12-03T06:49:37.585056",
        "meta_mean_motion": 14.77708998,
        "meta_eccentricity": 0.0023802,
        "meta_inclination": 98.0303,
        "meta_ra_of_asc_node": 219.0749,
        "meta_arg_of_pericenter": 313.2109,
        "meta_mean_anomaly": 46.7113,
        "meta_ephemeris_type": 0,
        "meta_classification_type": "U",
        "meta_norad_cat_id": 36110,
        "meta_element_set_no": 999,
        "meta_rev_at_epoch": 86069,
        "meta_bstar": 0.00015999,
        "meta_mean_motion_dot": 1.098e-05,
        "meta_mean_motion_ddot": 0,
        "tle_line1": "1 36110U 09069A   25337.28446279  .00001098  00000+0  15999-3 0  9990",
        "tle_line2": "2 36110  98.0303 219.0749 0023802 313.2109  46.7113 14.77708998860693"
      },
      "geometry": {
        "type": "Point",
        "coordinates": [
          -126.02231269011732,
          -60.3750576561956
        ]
      }
    },
    {
      "type": "Feature",
      "properties": {
        "norad_id": 36605,
        "name": "TANDEM-X",
        "group": "resource",
        "lat": -63.38982850986325,
        "lon": -1.5457933346712163,
        "alt_km": 516.728346017816,
        "timestamp": "2025-12-03T19:33:06.636327+00:00",
        "meta_object_name": "TANDEM-X",
        "meta_object_id": "2010-030A",
        "meta_epoch": "2025-12-02T15:22:47.718912",
        "meta_mean_motion": 15.19155178,
        "meta_eccentricity": 0.00017925,
        "meta_inclination": 97.4443,
        "meta_ra_of_asc_node": 342.1684,
        "meta_arg_of_pericenter": 94.9925,
        "meta_mean_anomaly": 265.1514,
        "meta_ephemeris_type": 0,
        "meta_classification_type": "U",
        "meta_norad_cat_id": 36605,
        "meta_element_set_no": 999,
        "meta_rev_at_epoch": 85680,
        "meta_bstar": 9.0053561e-05,
        "meta_mean_motion_dot": 1.825e-05,
        "meta_mean_motion_ddot": 0,
        "tle_line1": "1 36605U 10030A   25336.64083008  .00001825  00000+0  90054-4 0  9999",
        "tle_line2": "2 36605  97.4443 342.1684 0001792  94.9925 265.1514 15.19155178856802"
      },
      "geometry": {
        "type": "Point",
        "coordinates": [
          -1.5457933346712163,
          -63.38982850986325
        ]
      }
    },
    {
      "type": "Feature",
      "properties": {
        "norad_id": 36795,
        "name": "CARTOSAT-2B",
        "group": "resource",
        "lat": -12.88885744519627,
        "lon": -154.65989934341803,
        "alt_km": 637.6239274981808,
        "timestamp": "2025-12-03T19:33:06.636337+00:00",
        "meta_object_name": "CARTOSAT-2B",
        "meta_object_id": "2010-035A",
        "meta_epoch": "2025-12-03T12:11:15.736992",
        "meta_mean_motion": 14.78765236,
        "meta_eccentricity": 0.0012875,
        "meta_inclination": 97.7866,
        "meta_ra_of_asc_node": 26.8375,
        "meta_arg_of_pericenter": 104.6645,
        "meta_mean_anomaly": 255.5995,
        "meta_ephemeris_type": 0,
        "meta_classification_type": "U",
        "meta_norad_cat_id": 36795,
        "meta_element_set_no": 999,
        "meta_rev_at_epoch": 83093,
        "meta_bstar": 0.00016779,
        "meta_mean_motion_dot": 1.184e-05,
        "meta_mean_motion_ddot": 0,
        "tle_line1": "1 36795U 10035A   25337.50782103  .00001184  00000+0  16779-3 0  9991",
        "tle_line2": "2 36795  97.7866  26.8375 0012875 104.6645 255.5995 14.78765236830937"
      },
      "geometry": {
        "type": "Point",
        "coordinates": [
          -154.65989934341803,
          -12.88885744519627
        ]
      }
    },
    {
      "type": "Feature",
      "properties": {
        "norad_id": 36834,
        "name": "YAOGAN-10",
        "group": "resource",
        "lat": 81.28122124976714,
        "lon": -67.4162170742551,
        "alt_km": 606.494879967825,
        "timestamp": "2025-12-03T19:33:06.636348+00:00",
        "meta_object_name": "YAOGAN-10",
        "meta_object_id": "2010-038A",
        "meta_epoch": "2025-12-03T13:25:06.805056",
        "meta_mean_motion": 14.84552594,
        "meta_eccentricity": 0.0001507,
        "meta_inclination": 97.915,
        "meta_ra_of_asc_node": 357.4486,
        "meta_arg_of_pericenter": 84.1068,
        "meta_mean_anomaly": 77.2989,
        "meta_ephemeris_type": 0,
        "meta_classification_type": "U",
        "meta_norad_cat_id": 36834,
        "meta_element_set_no": 999,
        "meta_rev_at_epoch": 82817,
        "meta_bstar": 0.00022409,
        "meta_mean_motion_dot": 1.837e-05,
        "meta_mean_motion_ddot": 0,
        "tle_line1": "1 36834U 10038A   25337.55910654  .00001837  00000+0  22409-3 0  9999",
        "tle_line2": "2 36834  97.9150 357.4486 0001507  84.1068  77.2989 14.84552594828179"
      },
      "geometry": {
        "type": "Point",
        "coordinates": [
          -67.4162170742551,
          81.28122124976714
        ]
      }
    },
    {
      "type": "Feature",
      "properties": {
        "norad_id": 37216,
        "name": "COSMO-SKYMED 4",
        "group": "resource",
        "lat": 81.64302147110307,
        "lon": 88.72850268728376,
        "alt_km": 614.113445904668,
        "timestamp": "2025-12-03T19:33:06.636358+00:00",
        "meta_object_name": "COSMO-SKYMED 4",
        "meta_object_id": "2010-060A",
        "meta_epoch": "2025-12-03T12:40:43.805856",
        "meta_mean_motion": 14.82149956,
        "meta_eccentricity": 0.0001403,
        "meta_inclination": 97.8807,
        "meta_ra_of_asc_node": 158.9904,
        "meta_arg_of_pericenter": 83.5902,
        "meta_mean_anomaly": 276.5471,
        "meta_ephemeris_type": 0,
        "meta_classification_type": "U",
        "meta_norad_cat_id": 37216,
        "meta_element_set_no": 999,
        "meta_rev_at_epoch": 81558,
        "meta_bstar": 0.00011545,
        "meta_mean_motion_dot": 8.67e-06,
        "meta_mean_motion_ddot": 0,
        "tle_line1": "1 37216U 10060A   25337.52828479  .00000867  00000+0  11545-3 0  9990",
        "tle_line2": "2 37216  97.8807 158.9904 0001403  83.5902 276.5471 14.82149956815589"
      },
      "geometry": {
        "type": "Point",
        "coordinates": [
          88.72850268728376,
          81.64302147110307
        ]
      }
    },
    {
      "type": "Feature",
      "properties": {
        "norad_id": 37387,
        "name": "RESOURCESAT-2",
        "group": "resource",
        "lat": -14.800537068142049,
        "lon": -140.93662442999278,
        "alt_km": 827.7010014310508,
        "timestamp": "2025-12-03T19:33:06.636369+00:00",
        "meta_object_name": "RESOURCESAT-2",
        "meta_object_id": "2011-015A",
        "meta_epoch": "2025-12-03T11:52:54.717600",
        "meta_mean_motion": 14.21591115,
        "meta_eccentricity": 0.0006782,
        "meta_inclination": 98.789,
        "meta_ra_of_asc_node": 41.088,
        "meta_arg_of_pericenter": 66.3626,
        "meta_mean_anomaly": 293.8263,
        "meta_ephemeris_type": 0,
        "meta_classification_type": "U",
        "meta_norad_cat_id": 37387,
        "meta_element_set_no": 999,
        "meta_rev_at_epoch": 75837,
        "meta_bstar": 0.00013565,
        "meta_mean_motion_dot": 2.53e-06,
        "meta_mean_motion_ddot": 0,
        "tle_line1": "1 37387U 11015A   25337.49507775  .00000253  00000+0  13565-3 0  9992",
        "tle_line2": "2 37387  98.7890  41.0880 0006782  66.3626 293.8263 14.21591115758377"
      },
      "geometry": {
        "type": "Point",
        "coordinates": [
          -140.93662442999278,
          -14.800537068142049
        ]
      }
    }
  ]
}